CCSDS_OMM_VERS = 2.0
CREATION_DATE  = 
ORIGINATOR     = 

OBJECT_NAME    = STARLINK-35776
OBJECT_ID      = 2025-247T
CENTER_NAME    = EARTH
REF_FRAME      = TEME
TIME_SYSTEM    = UTC
MEAN_ELEMENT_THEORY = SGP/SGP4

EPOCH          = 2025-11-24T16:48:38.745216
MEAN_MOTION    = 15.49010596
ECCENTRICITY   = .0000919
INCLINATION    = 53.1591
RA_OF_ASC_NODE = 322.3468
ARG_OF_PERICENTER = 38.6886
MEAN_ANOMALY   = 321.4189

EPHEMERIS_TYPE = 0
CLASSIFICATION_TYPE = U
NORAD_CAT_ID   = 66282
ELEMENT_SET_NO = 999
REV_AT_EPOCH   = 491
BSTAR          = -.29735E-2
MEAN_MOTION_DOT = -.160767E-2
MEAN_MOTION_DDOT = 0

CCSDS_OMM_VERS = 2.0
CREATION_DATE  = 
ORIGINATOR     = 

OBJECT_NAME    = STARLINK-35774
OBJECT_ID      = 2025-247U
CENTER_NAME    = EARTH
REF_FRAME      = TEME
TIME_SYSTEM    = UTC
MEAN_ELEMENT_THEORY = SGP/SGP4

EPOCH          = 2025-11-24T16:48:05.717088
MEAN_MOTION    = 15.49332550
ECCENTRICITY   = .0001489
INCLINATION    = 53.1592
RA_OF_ASC_NODE = 322.3440
ARG_OF_PERICENTER = 88.5823
MEAN_ANOMALY   = 271.5357

EPHEMERIS_TYPE = 0
CLASSIFICATION_TYPE = U
NORAD_CAT_ID   = 66283
ELEMENT_SET_NO = 999
REV_AT_EPOCH   = 491
BSTAR          = .12822E-2
MEAN_MOTION_DOT = .71578E-3
MEAN_MOTION_DDOT = 0

CCSDS_OMM_VERS = 2.0
CREATION_DATE  = 
ORIGINATOR     = 

OBJECT_NAME    = STARLINK-35830
OBJECT_ID      = 2025-247V
CENTER_NAME    = EARTH
REF_FRAME      = TEME
TIME_SYSTEM    = UTC
MEAN_ELEMENT_THEORY = SGP/SGP4

EPOCH          = 2025-11-24T16:47:35.814048
MEAN_MOTION    = 15.49330850
ECCENTRICITY   = .0000962
INCLINATION    = 53.1595
RA_OF_ASC_NODE = 322.3420
ARG_OF_PERICENTER = 108.4340
MEAN_ANOMALY   = 251.6774

EPHEMERIS_TYPE = 0
CLASSIFICATION_TYPE = U
NORAD_CAT_ID   = 66284
ELEMENT_SET_NO = 999
REV_AT_EPOCH   = 491
BSTAR          = .13294E-2
MEAN_MOTION_DOT = .74252E-3
MEAN_MOTION_DDOT = 0

CCSDS_OMM_VERS = 2.0
CREATION_DATE  = 
ORIGINATOR     = 

OBJECT_NAME    = STARLINK-35819
OBJECT_ID      = 2025-247W
CENTER_NAME    = EARTH
REF_FRAME      = TEME
TIME_SYSTEM    = UTC
MEAN_ELEMENT_THEORY = SGP/SGP4

EPOCH          = 2025-11-24T16:47:06.171072
MEAN_MOTION    = 15.49324108
ECCENTRICITY   = .0001041
INCLINATION    = 53.1594
RA_OF_ASC_NODE = 322.3394
ARG_OF_PERICENTER = 104.5550
MEAN_ANOMALY   = 255.5574

EPHEMERIS_TYPE = 0
CLASSIFICATION_TYPE = U
NORAD_CAT_ID   = 66285
ELEMENT_SET_NO = 999
REV_AT_EPOCH   = 491
BSTAR          = .94242E-3
MEAN_MOTION_DOT = .52345E-3
MEAN_MOTION_DDOT = 0

CCSDS_OMM_VERS = 2.0
CREATION_DATE  = 
ORIGINATOR     = 

OBJECT_NAME    = STARLINK-35783
OBJECT_ID      = 2025-247X
CENTER_NAME    = EARTH
REF_FRAME      = TEME
TIME_SYSTEM    = UTC
MEAN_ELEMENT_THEORY = SGP/SGP4

EPOCH          = 2025-11-24T15:13:43.784256
MEAN_MOTION    = 15.49284796
ECCENTRICITY   = .0001028
INCLINATION    = 53.1594
RA_OF_ASC_NODE = 322.6452
ARG_OF_PERICENTER = 83.5629
MEAN_ANOMALY   = 276.5497

EPHEMERIS_TYPE = 0
CLASSIFICATION_TYPE = U
NORAD_CAT_ID   = 66286
ELEMENT_SET_NO = 999
REV_AT_EPOCH   = 490
BSTAR          = .10318E-2
MEAN_MOTION_DOT = .57311E-3
MEAN_MOTION_DDOT = 0

CCSDS_OMM_VERS = 2.0
CREATION_DATE  = 
ORIGINATOR     = 

OBJECT_NAME    = STARLINK-34884
OBJECT_ID      = 2025-247Y
CENTER_NAME    = EARTH
REF_FRAME      = TEME
TIME_SYSTEM    = UTC
MEAN_ELEMENT_THEORY = SGP/SGP4

EPOCH          = 2025-11-24T13:40:18.857280
MEAN_MOTION    = 15.49375960
ECCENTRICITY   = .0001225
INCLINATION    = 53.1598
RA_OF_ASC_NODE = 322.9511
ARG_OF_PERICENTER = 110.4250
MEAN_ANOMALY   = 249.6891

EPHEMERIS_TYPE = 0
CLASSIFICATION_TYPE = U
NORAD_CAT_ID   = 66287
ELEMENT_SET_NO = 999
REV_AT_EPOCH   = 489
BSTAR          = .7962E-3
MEAN_MOTION_DOT = .44188E-3
MEAN_MOTION_DDOT = 0

CCSDS_OMM_VERS = 2.0
CREATION_DATE  = 
ORIGINATOR     = 

OBJECT_NAME    = STARLINK-34896
OBJECT_ID      = 2025-247Z
CENTER_NAME    = EARTH
REF_FRAME      = TEME
TIME_SYSTEM    = UTC
MEAN_ELEMENT_THEORY = SGP/SGP4

EPOCH          = 2025-11-24T15:12:43.553088
MEAN_MOTION    = 15.49332572
ECCENTRICITY   = .0001444
INCLINATION    = 53.1593
RA_OF_ASC_NODE = 322.6408
ARG_OF_PERICENTER = 110.7577
MEAN_ANOMALY   = 249.3587

EPHEMERIS_TYPE = 0
CLASSIFICATION_TYPE = U
NORAD_CAT_ID   = 66288
ELEMENT_SET_NO = 999
REV_AT_EPOCH   = 490
BSTAR          = .11403E-2
MEAN_MOTION_DOT = .63539E-3
MEAN_MOTION_DDOT = 0

CCSDS_OMM_VERS = 2.0
CREATION_DATE  = 
ORIGINATOR     = 

OBJECT_NAME    = STARLINK-35802
OBJECT_ID      = 2025-247AA
CENTER_NAME    = EARTH
REF_FRAME      = TEME
TIME_SYSTEM    = UTC
MEAN_ELEMENT_THEORY = SGP/SGP4

EPOCH          = 2025-11-24T13:39:20.672064
MEAN_MOTION    = 15.49331521
ECCENTRICITY   = .0001306
INCLINATION    = 53.1593
RA_OF_ASC_NODE = 322.9465
ARG_OF_PERICENTER = 71.3849
MEAN_ANOMALY   = 288.7301

EPHEMERIS_TYPE = 0
CLASSIFICATION_TYPE = U
NORAD_CAT_ID   = 66289
ELEMENT_SET_NO = 999
REV_AT_EPOCH   = 489
BSTAR          = .1284E-2
MEAN_MOTION_DOT = .71675E-3
MEAN_MOTION_DDOT = 0

CCSDS_OMM_VERS = 2.0
CREATION_DATE  = 
ORIGINATOR     = 

OBJECT_NAME    = STARLINK-35799
OBJECT_ID      = 2025-247AB
CENTER_NAME    = EARTH
REF_FRAME      = TEME
TIME_SYSTEM    = UTC
MEAN_ELEMENT_THEORY = SGP/SGP4

EPOCH          = 2025-11-24T13:38:50.940096
MEAN_MOTION    = 15.49349766
ECCENTRICITY   = .0001695
INCLINATION    = 53.1598
RA_OF_ASC_NODE = 322.9427
ARG_OF_PERICENTER = 93.4292
MEAN_ANOMALY   = 266.6911

EPHEMERIS_TYPE = 0
CLASSIFICATION_TYPE = U
NORAD_CAT_ID   = 66290
ELEMENT_SET_NO = 999
REV_AT_EPOCH   = 494
BSTAR          = .20418E-2
MEAN_MOTION_DOT = .114957E-2
MEAN_MOTION_DDOT = 0

CCSDS_OMM_VERS = 2.0
CREATION_DATE  = 
ORIGINATOR     = 

OBJECT_NAME    = STARLINK-35800
OBJECT_ID      = 2025-247AC
CENTER_NAME    = EARTH
REF_FRAME      = TEME
TIME_SYSTEM    = UTC
MEAN_ELEMENT_THEORY = SGP/SGP4

EPOCH          = 2025-11-24T15:10:45.134112
MEAN_MOTION    = 15.49335697
ECCENTRICITY   = .0001319
INCLINATION    = 53.1592
RA_OF_ASC_NODE = 322.6306
ARG_OF_PERICENTER = 79.9350
MEAN_ANOMALY   = 280.1808

EPHEMERIS_TYPE = 0
CLASSIFICATION_TYPE = U
NORAD_CAT_ID   = 66291
ELEMENT_SET_NO = 999
REV_AT_EPOCH   = 495
BSTAR          = .19016E-2
MEAN_MOTION_DOT = .106867E-2
MEAN_MOTION_DDOT = 0

CCSDS_OMM_VERS = 2.0
CREATION_DATE  = 
ORIGINATOR     = 

OBJECT_NAME    = STARLINK-35798
OBJECT_ID      = 2025-247AD
CENTER_NAME    = EARTH
REF_FRAME      = TEME
TIME_SYSTEM    = UTC
MEAN_ELEMENT_THEORY = SGP/SGP4

EPOCH          = 2025-11-24T16:44:08.244960
MEAN_MOTION    = 15.49312709
ECCENTRICITY   = .0001359
INCLINATION    = 53.1593
RA_OF_ASC_NODE = 322.3246
ARG_OF_PERICENTER = 91.5408
MEAN_ANOMALY   = 268.5757

EPHEMERIS_TYPE = 0
CLASSIFICATION_TYPE = U
NORAD_CAT_ID   = 66292
ELEMENT_SET_NO = 999
REV_AT_EPOCH   = 491
BSTAR          = .61123E-3
MEAN_MOTION_DOT = .33697E-3
MEAN_MOTION_DDOT = 0

CCSDS_OMM_VERS = 2.0
CREATION_DATE  = 
ORIGINATOR     = 

OBJECT_NAME    = LVM3 R/B
OBJECT_ID      = 2025-249A
CENTER_NAME    = EARTH
REF_FRAME      = TEME
TIME_SYSTEM    = UTC
MEAN_ELEMENT_THEORY = SGP/SGP4

EPOCH          = 2025-11-24T08:23:00.019392
MEAN_MOTION    = 3.13657466
ECCENTRICITY   = .6672703
INCLINATION    = 21.3469
RA_OF_ASC_NODE = 148.0603
ARG_OF_PERICENTER = 200.7542
MEAN_ANOMALY   = 108.6163

EPHEMERIS_TYPE = 0
CLASSIFICATION_TYPE = U
NORAD_CAT_ID   = 66310
ELEMENT_SET_NO = 999
REV_AT_EPOCH   = 70
BSTAR          = .12201E-2
MEAN_MOTION_DOT = .4324E-3
MEAN_MOTION_DDOT = .33928E-8

CCSDS_OMM_VERS = 2.0
CREATION_DATE  = 
ORIGINATOR     = 

OBJECT_NAME    = CMS-03 (GSAT-7R)
OBJECT_ID      = 2025-249B
CENTER_NAME    = EARTH
REF_FRAME      = TEME
TIME_SYSTEM    = UTC
MEAN_ELEMENT_THEORY = SGP/SGP4

EPOCH          = 2025-11-24T19:31:31.685088
MEAN_MOTION    = 1.00272102
ECCENTRICITY   = .0004563
INCLINATION    = 0.1869
RA_OF_ASC_NODE = 271.6940
ARG_OF_PERICENTER = 196.5650
MEAN_ANOMALY   = 342.1685

EPHEMERIS_TYPE = 0
CLASSIFICATION_TYPE = U
NORAD_CAT_ID   = 66311
ELEMENT_SET_NO = 999
REV_AT_EPOCH   = 30
BSTAR          = 0
MEAN_MOTION_DOT = -.238E-5
MEAN_MOTION_DDOT = 0

CCSDS_OMM_VERS = 2.0
CREATION_DATE  = 
ORIGINATOR     = 

OBJECT_NAME    = YAOGAN-46
OBJECT_ID      = 2025-250A
CENTER_NAME    = EARTH
REF_FRAME      = TEME
TIME_SYSTEM    = UTC
MEAN_ELEMENT_THEORY = SGP/SGP4

EPOCH          = 2025-11-19T17:03:07.460064
MEAN_MOTION    = 5.35115933
ECCENTRICITY   = .00492424
INCLINATION    = 20.0323
RA_OF_ASC_NODE = 106.9378
ARG_OF_PERICENTER = 131.7872
MEAN_ANOMALY   = 228.6447

EPHEMERIS_TYPE = 0
CLASSIFICATION_TYPE = U
NORAD_CAT_ID   = 66313
ELEMENT_SET_NO = 999
REV_AT_EPOCH   = 96
BSTAR          = 0
MEAN_MOTION_DOT = -.9E-7
MEAN_MOTION_DDOT = 0

CCSDS_OMM_VERS = 2.0
CREATION_DATE  = 
ORIGINATOR     = 

OBJECT_NAME    = SENTINEL-1D
OBJECT_ID      = 2025-251A
CENTER_NAME    = EARTH
REF_FRAME      = TEME
TIME_SYSTEM    = UTC
MEAN_ELEMENT_THEORY = SGP/SGP4

EPOCH          = 2025-11-24T15:01:39.531072
MEAN_MOTION    = 14.59750679
ECCENTRICITY   = .0001406
INCLINATION    = 98.1939
RA_OF_ASC_NODE = 333.8871
ARG_OF_PERICENTER = 183.7852
MEAN_ANOMALY   = 176.3338

EPHEMERIS_TYPE = 0
CLASSIFICATION_TYPE = U
NORAD_CAT_ID   = 66315
ELEMENT_SET_NO = 999
REV_AT_EPOCH   = 289
BSTAR          = .53312E-4
MEAN_MOTION_DOT = .208E-5
MEAN_MOTION_DDOT = 0

